{
  "type": "FeatureCollection",
  "features": [
    {
      "type": "Feature",
      "properties": {
        "name": "Czech Republic"
      },
      "geometry": {
        "type": "Polygon",
        "coordinates": [
          [
            [18.853, 49.517], [18.829, 49.507], [18.805, 49.501], [18.78, 49.499], [18.754, 49.498],
            [18.728, 49.497], [18.702, 49.496], [18.676, 49.495], [18.65, 49.494], [18.624, 49.494],
            [18.598, 49.494], [18.578, 49.495], [18.558, 49.495], [18.532, 49.488], [18.506, 49.48],
            [18.48, 49.471], [18.454, 49.461], [18.428, 49.45], [18.407, 49.438], [18.392, 49.425],
            [18.377, 49.412], [18.362, 49.398], [18.347, 49.384], [18.332, 49.369], [18.317, 49.354],
            [18.302, 49.339], [18.287, 49.323], [18.272, 49.307], [18.257, 49.29], [18.242, 49.273],
            [18.227, 49.256], [18.212, 49.238], [18.197, 49.22], [18.182, 49.202], [18.167, 49.183],
            [18.152, 49.164], [18.137, 49.145], [18.122, 49.125], [18.106, 49.105], [18.091, 49.085],
            [18.076, 49.064], [18.061, 49.044], [18.033, 49.026], [18.005, 49.01], [17.977, 48.996],
            [17.949, 48.985], [17.921, 48.976], [17.904, 48.967], [17.886, 48.956], [17.869, 48.944],
            [17.852, 48.931], [17.835, 48.917], [17.818, 48.902], [17.801, 48.886], [17.784, 48.87],
            [17.767, 48.853], [17.75, 48.835], [17.733, 48.817], [17.716, 48.799], [17.699, 48.8],
            [17.682, 48.8], [17.665, 48.8], [17.648, 48.8], [17.631, 48.8], [17.614, 48.8],
            [17.597, 48.8], [17.58, 48.8], [17.563, 48.8], [17.545, 48.8], [17.52, 48.802],
            [17.495, 48.804], [17.47, 48.807], [17.445, 48.809], [17.42, 48.811], [17.395, 48.813],
            [17.37, 48.815], [17.345, 48.816], [17.32, 48.817], [17.295, 48.817], [17.27, 48.817],
            [17.245, 48.817], [17.22, 48.817], [17.195, 48.817], [17.17, 48.817], [17.145, 48.817],
            [17.12, 48.817], [17.102, 48.817], [17.084, 48.814], [17.066, 48.81], [17.048, 48.805],
            [17.03, 48.799], [17.012, 48.792], [16.994, 48.784], [16.976, 48.775], [16.96, 48.763],
            [16.944, 48.75], [16.928, 48.736], [16.912, 48.721], [16.896, 48.705], [16.88, 48.688],
            [16.864, 48.671], [16.848, 48.653], [16.832, 48.634], [16.816, 48.615], [16.8, 48.595],
            [16.78, 48.589], [16.76, 48.585], [16.74, 48.582], [16.72, 48.58], [16.7, 48.579],
            [16.68, 48.58], [16.66, 48.582], [16.64, 48.585], [16.62, 48.589], [16.6, 48.595],
            [16.58, 48.602], [16.56, 48.61], [16.54, 48.619], [16.52, 48.629], [16.5, 48.64],
            [16.48, 48.652], [16.46, 48.665], [16.44, 48.679], [16.42, 48.694], [16.4, 48.71],
            [16.38, 48.717], [16.36, 48.723], [16.34, 48.728], [16.32, 48.732], [16.3, 48.735],
            [16.28, 48.738], [16.26, 48.74], [16.24, 48.742], [16.22, 48.743], [16.2, 48.744],
            [16.18, 48.745], [16.16, 48.746], [16.14, 48.747], [16.12, 48.748], [16.1, 48.749],
            [16.08, 48.75], [16.06, 48.752], [16.04, 48.754], [16.03, 48.757], [16.02, 48.76],
            [16.01, 48.764], [16.0, 48.768], [15.99, 48.773], [15.98, 48.778], [15.97, 48.784],
            [15.96, 48.79], [15.95, 48.797], [15.94, 48.804], [15.93, 48.811], [15.92, 48.819],
            [15.91, 48.827], [15.9, 48.836], [15.89, 48.845], [15.88, 48.854], [15.87, 48.864],
            [15.86, 48.874], [15.85, 48.884], [15.84, 48.895], [15.83, 48.906], [15.82, 48.917],
            [15.81, 48.929], [15.8, 48.941], [15.79, 48.953], [15.78, 48.966], [15.77, 48.979],
            [15.76, 48.992], [15.75, 49.005], [15.74, 49.019], [15.73, 49.033], [15.72, 49.039],
            [15.71, 49.042], [15.7, 49.044], [15.69, 49.045], [15.68, 49.046], [15.67, 49.046],
            [15.66, 49.046], [15.65, 49.046], [15.64, 49.045], [15.63, 49.044], [15.62, 49.043],
            [15.61, 49.042], [15.6, 49.041], [15.59, 49.04], [15.58, 49.039], [15.57, 49.039],
            [15.56, 49.039], [15.54, 49.039], [15.52, 49.039], [15.5, 49.039], [15.48, 49.039],
            [15.46, 49.039], [15.44, 49.039], [15.42, 49.039], [15.4, 49.039], [15.38, 49.039],
            [15.36, 49.039], [15.34, 49.039], [15.32, 49.038], [15.3, 49.037], [15.28, 49.036],
            [15.26, 49.035], [15.253, 49.039], [15.23, 49.035], [15.21, 49.032], [15.19, 49.028],
            [15.17, 49.024], [15.15, 49.019], [15.13, 49.014], [15.11, 49.008], [15.09, 49.002],
            [15.07, 48.995], [15.05, 48.988], [15.03, 48.981], [15.01, 48.973], [14.99, 48.965],
            [14.97, 48.964], [14.95, 48.964], [14.93, 48.964], [14.901, 48.964], [14.88, 48.962],
            [14.86, 48.959], [14.84, 48.956], [14.82, 48.952], [14.8, 48.948], [14.78, 48.943],
            [14.76, 48.938], [14.74, 48.932], [14.72, 48.926], [14.7, 48.919], [14.68, 48.912],
            [14.66, 48.904], [14.64, 48.896], [14.62, 48.887], [14.6, 48.878], [14.58, 48.869],
            [14.56, 48.859], [14.54, 48.849], [14.52, 48.838], [14.5, 48.827], [14.48, 48.815],
            [14.46, 48.803], [14.44, 48.79], [14.42, 48.777], [14.4, 48.764], [14.38, 48.75],
            [14.36, 48.736], [14.34, 48.721], [14.339, 48.705], [14.32, 48.689], [14.3, 48.672],
            [14.28, 48.655], [14.26, 48.638], [14.24, 48.62], [14.22, 48.602], [14.2, 48.583],
            [14.18, 48.564], [14.16, 48.555], [14.14, 48.555], [14.12, 48.555], [14.1, 48.555],
            [14.08, 48.555], [14.06, 48.555], [14.04, 48.556], [14.02, 48.558], [14.0, 48.56],
            [13.98, 48.563], [13.96, 48.567], [13.94, 48.572], [13.92, 48.578], [13.9, 48.585],
            [13.88, 48.593], [13.86, 48.601], [13.84, 48.611], [13.82, 48.621], [13.8, 48.632],
            [13.78, 48.644], [13.76, 48.657], [13.74, 48.67], [13.72, 48.684], [13.7, 48.699],
            [13.68, 48.715], [13.66, 48.731], [13.64, 48.748], [13.62, 48.765], [13.6, 48.783],
            [13.596, 48.801], [13.58, 48.82], [13.56, 48.839], [13.54, 48.858], [13.52, 48.877],
            [13.5, 48.877], [13.48, 48.877], [13.46, 48.877], [13.44, 48.878], [13.42, 48.879],
            [13.4, 48.881], [13.38, 48.883], [13.36, 48.886], [13.34, 48.889], [13.32, 48.893],
            [13.3, 48.897], [13.28, 48.902], [13.26, 48.907], [13.24, 48.913], [13.22, 48.919],
            [13.2, 48.926], [13.18, 48.933], [13.16, 48.941], [13.14, 48.949], [13.12, 48.958],
            [13.1, 48.967], [13.08, 48.977], [13.06, 48.987], [13.04, 48.998], [13.031, 49.009],
            [13.02, 49.017], [13.01, 49.02], [13.0, 49.023], [12.99, 49.026], [12.98, 49.029],
            [12.97, 49.032], [12.96, 49.036], [12.95, 49.04], [12.94, 49.045], [12.93, 49.05],
            [12.92, 49.056], [12.91, 49.062], [12.9, 49.069], [12.89, 49.076], [12.88, 49.084],
            [12.87, 49.092], [12.86, 49.101], [12.85, 49.11], [12.84, 49.12], [12.83, 49.13],
            [12.82, 49.141], [12.81, 49.152], [12.8, 49.164], [12.79, 49.176], [12.78, 49.189],
            [12.77, 49.202], [12.76, 49.216], [12.75, 49.23], [12.74, 49.244], [12.73, 49.259],
            [12.72, 49.274], [12.71, 49.29], [12.7, 49.306], [12.69, 49.323], [12.68, 49.34],
            [12.67, 49.357], [12.66, 49.375], [12.65, 49.393], [12.64, 49.411], [12.63, 49.43],
            [12.62, 49.449], [12.61, 49.468], [12.6, 49.488], [12.59, 49.508], [12.58, 49.528],
            [12.57, 49.547], [12.56, 49.56], [12.55, 49.572], [12.54, 49.584], [12.53, 49.595],
            [12.521, 49.605], [12.51, 49.615], [12.5, 49.625], [12.49, 49.635], [12.48, 49.644],
            [12.47, 49.653], [12.46, 49.662], [12.45, 49.67], [12.44, 49.678], [12.43, 49.686],
            [12.42, 49.693], [12.415, 49.7], [12.41, 49.714], [12.405, 49.728], [12.4, 49.742],
            [12.395, 49.756], [12.39, 49.77], [12.385, 49.784], [12.38, 49.798], [12.375, 49.812],
            [12.37, 49.826], [12.365, 49.84], [12.36, 49.854], [12.355, 49.868], [12.35, 49.882],
            [12.345, 49.896], [12.34, 49.91], [12.335, 49.924], [12.33, 49.938], [12.325, 49.952],
            [12.32, 49.966], [12.315, 49.969], [12.31, 49.98], [12.305, 49.994], [12.3, 50.008],
            [12.295, 50.022], [12.29, 50.036], [12.285, 50.05], [12.28, 50.064], [12.275, 50.078],
            [12.27, 50.092], [12.265, 50.106], [12.26, 50.12], [12.255, 50.134], [12.25, 50.148],
            [12.245, 50.162], [12.24, 50.176], [12.24, 50.19], [12.24, 50.204], [12.24, 50.218],
            [12.24, 50.232], [12.24, 50.246], [12.24, 50.26], [12.24, 50.266], [12.25, 50.28],
            [12.26, 50.294], [12.27, 50.308], [12.28, 50.322], [12.29, 50.336], [12.3, 50.35],
            [12.31, 50.364], [12.32, 50.378], [12.33, 50.392], [12.34, 50.406], [12.35, 50.42],
            [12.36, 50.434], [12.37, 50.448], [12.38, 50.462], [12.39, 50.476], [12.4, 50.484],
            [12.42, 50.49], [12.44, 50.495], [12.46, 50.499], [12.48, 50.502], [12.5, 50.504],
            [12.52, 50.505], [12.54, 50.505], [12.56, 50.504], [12.58, 50.502], [12.6, 50.499],
            [12.62, 50.495], [12.64, 50.49], [12.66, 50.484], [12.68, 50.484], [12.7, 50.484],
            [12.72, 50.484], [12.74, 50.485], [12.76, 50.486], [12.78, 50.488], [12.8, 50.49],
            [12.82, 50.493], [12.84, 50.496], [12.86, 50.5], [12.88, 50.505], [12.9, 50.51],
            [12.92, 50.516], [12.94, 50.523], [12.967, 50.53], [12.99, 50.538], [13.01, 50.547],
            [13.03, 50.556], [13.05, 50.566], [13.07, 50.576], [13.09, 50.587], [13.11, 50.598],
            [13.13, 50.61], [13.15, 50.622], [13.17, 50.635], [13.19, 50.648], [13.21, 50.662],
            [13.23, 50.676], [13.25, 50.691], [13.27, 50.706], [13.29, 50.722], [13.31, 50.733],
            [13.338, 50.738], [13.36, 50.743], [13.38, 50.747], [13.4, 50.75], [13.42, 50.752],
            [13.44, 50.753], [13.46, 50.753], [13.48, 50.752], [13.5, 50.75], [13.52, 50.747],
            [13.54, 50.743], [13.56, 50.738], [13.58, 50.733], [13.6, 50.727], [13.62, 50.721],
            [13.64, 50.715], [13.66, 50.709], [13.68, 50.703], [13.7, 50.698], [13.72, 50.693],
            [13.74, 50.689], [13.76, 50.686], [13.78, 50.683], [13.8, 50.681], [13.82, 50.68],
            [13.84, 50.68], [13.86, 50.681], [13.88, 50.683], [13.9, 50.686], [13.92, 50.689],
            [13.94, 50.693], [13.96, 50.698], [13.98, 50.703], [14.0, 50.709], [14.02, 50.715],
            [14.04, 50.721], [14.056, 50.727], [14.08, 50.74], [14.1, 50.753], [14.12, 50.766],
            [14.14, 50.779], [14.16, 50.792], [14.18, 50.805], [14.2, 50.818], [14.22, 50.831],
            [14.24, 50.844], [14.26, 50.857], [14.28, 50.87], [14.3, 50.883], [14.307, 50.896],
            [14.32, 50.909], [14.33, 50.922], [14.34, 50.935], [14.35, 50.948], [14.36, 50.961],
            [14.37, 50.974], [14.38, 50.987], [14.39, 51.0], [14.4, 51.013], [14.41, 51.026],
            [14.42, 51.039], [14.43, 51.052], [14.44, 51.065], [14.45, 51.078], [14.46, 51.091],
            [14.47, 51.104], [14.48, 51.117], [14.49, 51.117], [14.5, 51.117], [14.51, 51.116],
            [14.52, 51.114], [14.53, 51.111], [14.54, 51.107], [14.55, 51.102], [14.557, 51.096],
            [14.564, 51.089], [14.571, 51.081], [14.578, 51.072], [14.585, 51.062], [14.592, 51.052],
            [14.599, 51.041], [14.606, 51.029], [14.613, 51.017], [14.62, 51.004], [14.627, 50.99],
            [14.634, 50.976], [14.641, 50.961], [14.648, 50.946], [14.655, 50.93], [14.662, 50.914],
            [14.669, 50.897], [14.676, 50.88], [14.683, 50.862], [14.69, 50.844], [14.697, 50.826],
            [14.704, 50.807], [14.711, 50.788], [14.718, 50.769], [14.725, 50.749], [14.732, 50.729],
            [14.739, 50.709], [14.746, 50.688], [14.753, 50.667], [14.76, 50.646], [14.767, 50.625],
            [14.774, 50.603], [14.781, 50.581], [14.788, 50.559], [14.795, 50.537], [14.802, 50.514],
            [14.809, 50.491], [14.816, 50.468], [14.823, 50.445], [14.83, 50.421], [14.837, 50.397],
            [14.844, 50.373], [14.851, 50.349], [14.858, 50.325], [14.865, 50.301], [14.872, 50.276],
            [14.879, 50.251], [14.886, 50.226], [14.893, 50.201], [14.9, 50.176], [14.907, 50.151],
            [14.914, 50.125], [14.921, 50.1], [14.928, 50.074], [14.935, 50.049], [14.95, 50.036],
            [14.965, 50.024], [14.98, 50.013], [14.995, 50.003], [15.01, 49.994], [15.025, 49.986],
            [15.04, 49.979], [15.055, 49.973], [15.07, 49.968], [15.085, 49.964], [15.1, 49.961],
            [15.115, 49.959], [15.13, 49.958], [15.145, 49.958], [15.16, 49.959], [15.175, 49.961],
            [15.19, 49.964], [15.205, 49.968], [15.22, 49.973], [15.235, 49.979], [15.25, 49.986],
            [15.265, 49.994], [15.28, 50.003], [15.295, 50.013], [15.31, 50.024], [15.325, 50.036],
            [15.34, 50.049], [15.355, 50.063], [15.37, 50.078], [15.385, 50.094], [15.4, 50.107],
            [15.415, 50.117], [15.43, 50.126], [15.445, 50.134], [15.46, 50.141], [15.475, 50.147],
            [15.491, 50.152], [15.506, 50.156], [15.521, 50.159], [15.536, 50.161], [15.551, 50.162],
            [15.566, 50.162], [15.581, 50.161], [15.596, 50.159], [15.611, 50.156], [15.626, 50.152],
            [15.641, 50.147], [15.656, 50.141], [15.671, 50.134], [15.686, 50.126], [15.701, 50.117],
            [15.716, 50.107], [15.731, 50.1], [15.746, 50.094], [15.761, 50.089], [15.776, 50.085],
            [15.791, 50.082], [15.806, 50.08], [15.821, 50.079], [15.836, 50.079], [15.851, 50.08],
            [15.866, 50.082], [15.881, 50.085], [15.896, 50.089], [15.911, 50.094], [15.926, 50.1],
            [15.941, 50.107], [15.956, 50.115], [15.971, 50.124], [15.986, 50.134], [16.001, 50.145],
            [16.016, 50.157], [16.031, 50.17], [16.046, 50.184], [16.061, 50.199], [16.076, 50.215],
            [16.091, 50.232], [16.106, 50.25], [16.121, 50.269], [16.136, 50.289], [16.151, 50.31],
            [16.166, 50.332], [16.176, 50.354], [16.181, 50.376], [16.186, 50.398], [16.191, 50.42],
            [16.186, 50.424], [16.181, 50.427], [16.176, 50.43], [16.171, 50.432], [16.166, 50.433],
            [16.161, 50.433], [16.156, 50.432], [16.151, 50.43], [16.146, 50.427], [16.141, 50.424],
            [16.136, 50.42], [16.131, 50.415], [16.126, 50.409], [16.121, 50.402], [16.116, 50.394],
            [16.111, 50.385], [16.106, 50.375], [16.101, 50.365], [16.096, 50.354], [16.091, 50.342],
            [16.086, 50.329], [16.081, 50.316], [16.076, 50.302], [16.071, 50.287], [16.066, 50.272],
            [16.061, 50.256], [16.056, 50.24], [16.051, 50.223], [16.046, 50.216], [16.051, 50.21],
            [16.066, 50.205], [16.091, 50.201], [16.126, 50.198], [16.171, 50.196], [16.226, 50.195],
            [16.291, 50.195], [16.366, 50.196], [16.451, 50.198], [16.546, 50.201], [16.651, 50.205],
            [16.72, 50.216], [16.76, 50.223], [16.8, 50.23], [16.84, 50.237], [16.869, 50.244],
            [16.88, 50.258], [16.89, 50.272], [16.9, 50.286], [16.91, 50.3], [16.92, 50.314],
            [16.93, 50.328], [16.94, 50.342], [16.95, 50.356], [16.96, 50.37], [16.97, 50.384],
            [16.98, 50.398], [16.99, 50.412], [17.0, 50.426], [17.01, 50.44], [17.02, 50.454],
            [17.03, 50.468], [17.04, 50.474], [17.06, 50.478], [17.08, 50.481], [17.1, 50.483],
            [17.12, 50.484], [17.14, 50.484], [17.16, 50.483], [17.18, 50.481], [17.2, 50.478],
            [17.22, 50.474], [17.24, 50.469], [17.26, 50.463], [17.28, 50.456], [17.3, 50.448],
            [17.32, 50.439], [17.34, 50.429], [17.36, 50.418], [17.38, 50.406], [17.4, 50.393],
            [17.42, 50.379], [17.44, 50.364], [17.46, 50.362], [17.48, 50.362], [17.5, 50.362],
            [17.52, 50.362], [17.54, 50.362], [17.555, 50.362], [17.57, 50.356], [17.585, 50.349],
            [17.6, 50.341], [17.615, 50.332], [17.63, 50.322], [17.645, 50.311], [17.66, 50.299],
            [17.675, 50.286], [17.69, 50.272], [17.705, 50.257], [17.72, 50.241], [17.735, 50.224],
            [17.75, 50.206], [17.765, 50.187], [17.78, 50.167], [17.795, 50.146], [17.81, 50.124],
            [17.825, 50.101], [17.84, 50.077], [17.855, 50.052], [17.87, 50.049], [17.89, 50.049],
            [17.91, 50.049], [17.93, 50.048], [17.95, 50.046], [17.97, 50.043], [17.99, 50.039],
            [18.01, 50.034], [18.03, 50.028], [18.05, 50.021], [18.07, 50.013], [18.09, 50.004],
            [18.11, 49.994], [18.13, 49.989], [18.15, 49.989], [18.17, 49.989], [18.19, 49.989],
            [18.21, 49.989], [18.23, 49.989], [18.25, 49.989], [18.27, 49.989], [18.29, 49.989],
            [18.31, 49.989], [18.33, 49.989], [18.35, 49.989], [18.37, 49.989], [18.393, 49.989],
            [18.41, 49.984], [18.43, 49.978], [18.45, 49.971], [18.47, 49.963], [18.49, 49.954],
            [18.51, 49.944], [18.53, 49.933], [18.55, 49.921], [18.57, 49.908], [18.59, 49.894],
            [18.61, 49.879], [18.63, 49.863], [18.65, 49.846], [18.67, 49.828], [18.69, 49.809],
            [18.71, 49.789], [18.73, 49.768], [18.75, 49.746], [18.77, 49.723], [18.79, 49.699],
            [18.81, 49.674], [18.83, 49.648], [18.85, 49.621], [18.853, 49.594], [18.855, 49.567],
            [18.856, 49.54], [18.855, 49.517], [18.853, 49.517]
          ]
        ]
      }
    }
  ]
}
